{"type": "FeatureCollection", "features": [ {"type": "Feature", "properties": {"norad_id": 44476, "name": "INTELSAT 39 (IS-39)", "group": "intelsat", "lat": -0.042194744521181375, "lon": -123.52333473977255, "alt_km": 35786.70985049323, "timestamp": "2025-12-20T05:41:49.686199+00:00", "meta": {"OBJECT_NAME": "INTELSAT 39 (IS-39)", "OBJECT_ID": "2019-049B", "EPOCH": "2025-12-19T20:34:05.404800", "MEAN_MOTION": 1.00273804, "ECCENTRICITY": 7.094e-05, "INCLINATION": 0.0181, "RA_OF_ASC_NODE": 338.3517, "ARG_OF_PERICENTER": 144.5413, "MEAN_ANOMALY": 336.274, "EPHEMERIS_TYPE": 0, "CLASSIFICATION_TYPE": "U", "NORAD_CAT_ID": 44476, "ELEMENT_SET_NO": 999, "REV_AT_EPOCH": 2333, "BSTAR": 0, "MEAN_MOTION_DOT": 5.7e-07, "MEAN_MOTION_DDOT": 0}, "tle": {"line1": "1 44476U 19049B   25353.85700700  .00000057  00000+0  00000+0 0  9993", "line2": "2 44476   0.0181 338.3517 0000709 144.5413 336.2740  1.00273804 23336"}}, "geometry": {"type": "Point", "coordinates": [-123.52333473977255, -0.042194744521181375]}}, {"type": "Feature", "properties": {"norad_id": 46114, "name": "GALAXY 30 (G-30)", "group": "intelsat", "lat": 0.01624257624836781, "lon": 49.5535306530915, "alt_km": 35792.06006206894, "timestamp": "2025-12-20T05:41:49.686222+00:00", "meta": {"OBJECT_NAME": "GALAXY 30 (G-30)", "OBJECT_ID": "2020-056C", "EPOCH": "2025-12-19T13:12:02.202336", "MEAN_MOTION": 1.00273015, "ECCENTRICITY": 0.0002025, "INCLINATION": 0.0093, "RA_OF_ASC_NODE": 38.0786, "ARG_OF_PERICENTER": 233.5866, "MEAN_ANOMALY": 249.7539, "EPHEMERIS_TYPE": 0, "CLASSIFICATION_TYPE": "U", "NORAD_CAT_ID": 46114, "ELEMENT_SET_NO": 999, "REV_AT_EPOCH": 1949, "BSTAR": 0, "MEAN_MOTION_DOT": 6.1e-07, "MEAN_MOTION_DDOT": 0}, "tle": {"line1": "1 46114U 20056C   25353.55002549  .00000061  00000+0  00000+0 0  9992", "line2": "2 46114   0.0093  38.0786 0002025 233.5866 249.7539  1.00273015 19495"}}, "geometry": {"type": "Point", "coordinates": [49.5535306530915, 0.01624257624836781]}}, {"type": "Feature", "properties": {"norad_id": 54026, "name": "GALAXY 33 (G-33)", "group": "intelsat", "lat": 0.013429549346273717, "lon": 41.53648326000551, "alt_km": 35790.76397674013, "timestamp": "2025-12-20T05:41:49.686237+00:00", "meta": {"OBJECT_NAME": "GALAXY 33 (G-33)", "OBJECT_ID": "2022-128A", "EPOCH": "2025-12-19T13:14:24.484128", "MEAN_MOTION": 1.00270988, "ECCENTRICITY": 0.0001546, "INCLINATION": 0.0121, "RA_OF_ASC_NODE": 37.1109, "ARG_OF_PERICENTER": 230.7871, "MEAN_ANOMALY": 246.1062, "EPHEMERIS_TYPE": 0, "CLASSIFICATION_TYPE": "U", "NORAD_CAT_ID": 54026, "ELEMENT_SET_NO": 999, "REV_AT_EPOCH": 1194, "BSTAR": 0, "MEAN_MOTION_DOT": 1.03e-06, "MEAN_MOTION_DDOT": 0}, "tle": {"line1": "1 54026U 22128A   25353.55167227  .00000103  00000+0  00000+0 0  9997", "line2": "2 54026   0.0121  37.1109 0001546 230.7871 246.1062  1.00270988 11949"}}, "geometry": {"type": "Point", "coordinates": [41.53648326000551, 0.013429549346273717]}}, {"type": "Feature", "properties": {"norad_id": 54027, "name": "GALAXY 34 (G-34)", "group": "intelsat", "lat": 0.03621963098063438, "lon": 45.58793928986887, "alt_km": 35793.17049106768, "timestamp": "2025-12-20T05:41:49.686249+00:00", "meta": {"OBJECT_NAME": "GALAXY 34 (G-34)", "OBJECT_ID": "2022-128B", "EPOCH": "2025-12-19T13:10:06.061728", "MEAN_MOTION": 1.00267598, "ECCENTRICITY": 0.0001742, "INCLINATION": 0.0227, "RA_OF_ASC_NODE": 2.2643, "ARG_OF_PERICENTER": 259.2525, "MEAN_ANOMALY": 255.4687, "EPHEMERIS_TYPE": 0, "CLASSIFICATION_TYPE": "U", "NORAD_CAT_ID": 54027, "ELEMENT_SET_NO": 999, "REV_AT_EPOCH": 1211, "BSTAR": 0, "MEAN_MOTION_DOT": 0, "MEAN_MOTION_DDOT": 0}, "tle": {"line1": "1 54027U 22128B   25353.54868127  .00000000  00000+0  00000+0 0  9990", "line2": "2 54027   0.0227   2.2643 0001742 259.2525 255.4687  1.00267598 12112"}}, "geometry": {"type": "Point", "coordinates": [45.58793928986887, 0.03621963098063438]}}, {"type": "Feature", "properties": {"norad_id": 54243, "name": "GALAXY 31 (G-31)", "group": "intelsat", "lat": 0.010928313770179051, "lon": 53.53412654441624, "alt_km": 35790.409488793885, "timestamp": "2025-12-20T05:41:49.686261+00:00", "meta": {"OBJECT_NAME": "GALAXY 31 (G-31)", "OBJECT_ID": "2022-153A", "EPOCH": "2025-12-19T13:14:56.205024", "MEAN_MOTION": 1.00270971, "ECCENTRICITY": 0.0001366, "INCLINATION": 0.0145, "RA_OF_ASC_NODE": 65.0111, "ARG_OF_PERICENTER": 212.9999, "MEAN_ANOMALY": 248.1254, "EPHEMERIS_TYPE": 0, "CLASSIFICATION_TYPE": "U", "NORAD_CAT_ID": 54243, "ELEMENT_SET_NO": 999, "REV_AT_EPOCH": 533, "BSTAR": 0, "MEAN_MOTION_DOT": 3.8e-07, "MEAN_MOTION_DDOT": 0}, "tle": {"line1": "1 54243U 22153A   25353.55203941  .00000038  00000+0  00000+0 0  9997", "line2": "2 54243   0.0145  65.0111 0001366 212.9999 248.1254  1.00270971  5335"}}, "geometry": {"type": "Point", "coordinates": [53.53412654441624, 0.010928313770179051]}}, {"type": "Feature", "properties": {"norad_id": 54244, "name": "GALAXY 32 (G-32)", "group": "intelsat", "lat": 0.038040772450869016, "lon": 83.54590074741243, "alt_km": 35790.90740015721, "timestamp": "2025-12-20T05:41:49.686273+00:00", "meta": {"OBJECT_NAME": "GALAXY 32 (G-32)", "OBJECT_ID": "2022-153B", "EPOCH": "2025-12-19T12:21:45.204192", "MEAN_MOTION": 1.00271304, "ECCENTRICITY": 0.00019316, "INCLINATION": 0.0112, "RA_OF_ASC_NODE": 8.1777, "ARG_OF_PERICENTER": 310.6888, "MEAN_ANOMALY": 223.9419, "EPHEMERIS_TYPE": 0, "CLASSIFICATION_TYPE": "U", "NORAD_CAT_ID": 54244, "ELEMENT_SET_NO": 999, "REV_AT_EPOCH": 1134, "BSTAR": 0, "MEAN_MOTION_DOT": -1.5e-06, "MEAN_MOTION_DDOT": 0}, "tle": {"line1": "1 54244U 22153B   25353.51510653 -.00000150  00000+0  00000+0 0  9991", "line2": "2 54244   0.0112   8.1777 0001931 310.6888 223.9419  1.00271304 11340"}}, "geometry": {"type": "Point", "coordinates": [83.54590074741243, 0.038040772450869016]}}, {"type": "Feature", "properties": {"norad_id": 54741, "name": "GALAXY 35 (G-35)", "group": "intelsat", "lat": 0.024839022355401853, "lon": 81.4327610927893, "alt_km": 35794.82871857394, "timestamp": "2025-12-20T05:41:49.686285+00:00", "meta": {"OBJECT_NAME": "GALAXY 35 (G-35)", "OBJECT_ID": "2022-170A", "EPOCH": "2025-12-19T19:40:07.614048", "MEAN_MOTION": 1.00272267, "ECCENTRICITY": 0.00021368, "INCLINATION": 0.0189, "RA_OF_ASC_NODE": 59.6955, "ARG_OF_PERICENTER": 213.5206, "MEAN_ANOMALY": 17.3837, "EPHEMERIS_TYPE": 0, "CLASSIFICATION_TYPE": "U", "NORAD_CAT_ID": 54741, "ELEMENT_SET_NO": 999, "REV_AT_EPOCH": 1109, "BSTAR": 0, "MEAN_MOTION_DOT": -1.38e-06, "MEAN_MOTION_DDOT": 0}, "tle": {"line1": "1 54741U 22170A   25353.81953257 -.00000138  00000+0  00000+0 0  9992", "line2": "2 54741   0.0189  59.6955 0002136 213.5206  17.3837  1.00272267 11098"}}, "geometry": {"type": "Point", "coordinates": [81.4327610927893, 0.024839022355401853]}}, {"type": "Feature", "properties": {"norad_id": 54742, "name": "GALAXY 36 (G-36)", "group": "intelsat", "lat": 0.043013282790981176, "lon": 85.51330440915665, "alt_km": 35786.725597659475, "timestamp": "2025-12-20T05:41:49.686296+00:00", "meta": {"OBJECT_NAME": "GALAXY 36 (G-36)", "OBJECT_ID": "2022-170B", "EPOCH": "2025-12-19T11:26:17.746656", "MEAN_MOTION": 1.00269448, "ECCENTRICITY": 3.277e-05, "INCLINATION": 0.0154, "RA_OF_ASC_NODE": 1.2484, "ARG_OF_PERICENTER": 356.3227, "MEAN_ANOMALY": 173.3219, "EPHEMERIS_TYPE": 0, "CLASSIFICATION_TYPE": "U", "NORAD_CAT_ID": 54742, "ELEMENT_SET_NO": 999, "REV_AT_EPOCH": 1097, "BSTAR": 0, "MEAN_MOTION_DOT": 0, "MEAN_MOTION_DDOT": 0}, "tle": {"line1": "1 54742U 22170B   25353.47659429  .00000000  00000+0  00000+0 0  9996", "line2": "2 54742   0.0154   1.2484 0000327 356.3227 173.3219  1.00269448 10970"}}, "geometry": {"type": "Point", "coordinates": [85.51330440915665, 0.043013282790981176]}}, {"type": "Feature", "properties": {"norad_id": 57493, "name": "GALAXY 37 (G-37)", "group": "intelsat", "lat": 0.03561666105735615, "lon": 47.5331375801675, "alt_km": 35792.19901259397, "timestamp": "2025-12-20T05:41:49.686308+00:00", "meta": {"OBJECT_NAME": "GALAXY 37 (G-37)", "OBJECT_ID": "2023-112A", "EPOCH": "2025-12-19T17:47:40.883424", "MEAN_MOTION": 1.00270724, "ECCENTRICITY": 0.00019181, "INCLINATION": 0.0159, "RA_OF_ASC_NODE": 351.0446, "ARG_OF_PERICENTER": 280.4073, "MEAN_ANOMALY": 317.0522, "EPHEMERIS_TYPE": 0, "CLASSIFICATION_TYPE": "U", "NORAD_CAT_ID": 57493, "ELEMENT_SET_NO": 999, "REV_AT_EPOCH": 874, "BSTAR": 0, "MEAN_MOTION_DOT": 7.3e-07, "MEAN_MOTION_DDOT": 0}, "tle": {"line1": "1 57493U 23112A   25353.74144541  .00000073  00000+0  00000+0 0  9993", "line2": "2 57493   0.0159 351.0446 0001918 280.4073 317.0522  1.00270724  8743"}}, "geometry": {"type": "Point", "coordinates": [47.5331375801675, 0.03561666105735615]}}]}